{
  "type": "FeatureCollection",
  "features": [
    {
      "type": "Feature",
      "properties": {
        "norad_id": 57400,
        "name": "TIANMU-1 08",
        "group": "weather",
        "lat": 78.69515161949019,
        "lon": -99.7438243698201,
        "alt_km": 469.5759669448689,
        "timestamp": "2025-12-16T21:38:56.812234+00:00",
        "meta_object_name": "TIANMU-1 08",
        "meta_object_id": "2023-101B",
        "meta_epoch": "2025-12-16T07:04:31.130400",
        "meta_mean_motion": 15.28107231,
        "meta_eccentricity": 0.00074398,
        "meta_inclination": 97.2868,
        "meta_ra_of_asc_node": 39.8639,
        "meta_arg_of_pericenter": 74.0937,
        "meta_mean_anomaly": 286.1122,
        "meta_ephemeris_type": 0,
        "meta_classification_type": "U",
        "meta_norad_cat_id": 57400,
        "meta_element_set_no": 999,
        "meta_rev_at_epoch": 13369,
        "meta_bstar": 0.00020660824,
        "meta_mean_motion_dot": 5.593e-05,
        "meta_mean_motion_ddot": 0,
        "tle_line1": "1 57400U 23101B   25350.29480475  .00005593  00000+0  20661-3 0  9996",
        "tle_line2": "2 57400  97.2868  39.8639 0007439  74.0937 286.1122 15.28107231133693"
      },
      "geometry": {
        "type": "Point",
        "coordinates": [
          -99.7438243698201,
          78.69515161949019
        ]
      }
    },
    {
      "type": "Feature",
      "properties": {
        "norad_id": 57401,
        "name": "TIANMU-1 09",
        "group": "weather",
        "lat": 8.02868515772507,
        "lon": -138.99754954101894,
        "alt_km": 484.1144837773545,
        "timestamp": "2025-12-16T21:38:56.812244+00:00",
        "meta_object_name": "TIANMU-1 09",
        "meta_object_id": "2023-101C",
        "meta_epoch": "2025-12-16T08:19:40.833696",
        "meta_mean_motion": 15.28139322,
        "meta_eccentricity": 0.00066803,
        "meta_inclination": 97.2824,
        "meta_ra_of_asc_node": 39.4264,
        "meta_arg_of_pericenter": 74.1532,
        "meta_mean_anomaly": 286.0444,
        "meta_ephemeris_type": 0,
        "meta_classification_type": "U",
        "meta_norad_cat_id": 57401,
        "meta_element_set_no": 999,
        "meta_rev_at_epoch": 13370,
        "meta_bstar": 0.00021410975,
        "meta_mean_motion_dot": 5.804e-05,
        "meta_mean_motion_ddot": 0,
        "tle_line1": "1 57401U 23101C   25350.34700039  .00005804  00000+0  21411-3 0  9993",
        "tle_line2": "2 57401  97.2824  39.4264 0006680  74.1532 286.0444 15.28139322133709"
      },
      "geometry": {
        "type": "Point",
        "coordinates": [
          -138.99754954101894,
          8.02868515772507
        ]
      }
    },
    {
      "type": "Feature",
      "properties": {
        "norad_id": 57402,
        "name": "TIANMU-1 10",
        "group": "weather",
        "lat": -16.57156025290105,
        "lon": 43.006504040367254,
        "alt_km": 486.1235570027793,
        "timestamp": "2025-12-16T21:38:56.812254+00:00",
        "meta_object_name": "TIANMU-1 10",
        "meta_object_id": "2023-101D",
        "meta_epoch": "2025-12-16T09:08:58.557984",
        "meta_mean_motion": 15.28131239,
        "meta_eccentricity": 0.00084353,
        "meta_inclination": 97.2905,
        "meta_ra_of_asc_node": 40.3136,
        "meta_arg_of_pericenter": 72.9808,
        "meta_mean_anomaly": 287.2355,
        "meta_ephemeris_type": 0,
        "meta_classification_type": "U",
        "meta_norad_cat_id": 57402,
        "meta_element_set_no": 999,
        "meta_rev_at_epoch": 13370,
        "meta_bstar": 0.00021491278,
        "meta_mean_motion_dot": 5.826e-05,
        "meta_mean_motion_ddot": 0,
        "tle_line1": "1 57402U 23101D   25350.38123331  .00005826  00000+0  21491-3 0  9994",
        "tle_line2": "2 57402  97.2905  40.3136 0008435  72.9808 287.2355 15.28131239133704"
      },
      "geometry": {
        "type": "Point",
        "coordinates": [
          43.006504040367254,
          -16.57156025290105
        ]
      }
    },
    {
      "type": "Feature",
      "properties": {
        "norad_id": 57490,
        "name": "FENGYUN 3F",
        "group": "weather",
        "lat": 63.01093573408402,
        "lon": 41.614311278536164,
        "alt_km": 819.1609494045915,
        "timestamp": "2025-12-16T21:38:56.812267+00:00",
        "meta_object_name": "FENGYUN 3F",
        "meta_object_id": "2023-111A",
        "meta_epoch": "2025-12-16T07:49:02.548416",
        "meta_mean_motion": 14.19894527,
        "meta_eccentricity": 6.964e-05,
        "meta_inclination": 98.708,
        "meta_ra_of_asc_node": 58.5612,
        "meta_arg_of_pericenter": 108.0674,
        "meta_mean_anomaly": 252.0578,
        "meta_ephemeris_type": 0,
        "meta_classification_type": "U",
        "meta_norad_cat_id": 57490,
        "meta_element_set_no": 999,
        "meta_rev_at_epoch": 12291,
        "meta_bstar": 5.3567374e-05,
        "meta_mean_motion_dot": 7e-07,
        "meta_mean_motion_ddot": 0,
        "tle_line1": "1 57490U 23111A   25350.32572394  .00000070  00000+0  53567-4 0  9999",
        "tle_line2": "2 57490  98.7080  58.5612 0000696 108.0674 252.0578 14.19894527122917"
      },
      "geometry": {
        "type": "Point",
        "coordinates": [
          41.614311278536164,
          63.01093573408402
        ]
      }
    },
    {
      "type": "Feature",
      "properties": {
        "norad_id": 58584,
        "name": "ARKTIKA-M 2",
        "group": "weather",
        "lat": 49.176439676463914,
        "lon": -149.78614952426668,
        "alt_km": 28197.854744014887,
        "timestamp": "2025-12-16T21:38:56.812281+00:00",
        "meta_object_name": "ARKTIKA-M 2",
        "meta_object_id": "2023-198A",
        "meta_epoch": "2025-12-15T07:41:54.278304",
        "meta_mean_motion": 2.00603484,
        "meta_eccentricity": 0.68650912,
        "meta_inclination": 63.2249,
        "meta_ra_of_asc_node": 174.6089,
        "meta_arg_of_pericenter": 268.096,
        "meta_mean_anomaly": 18.8351,
        "meta_ephemeris_type": 0,
        "meta_classification_type": "U",
        "meta_norad_cat_id": 58584,
        "meta_element_set_no": 999,
        "meta_rev_at_epoch": 1463,
        "meta_bstar": 0,
        "meta_mean_motion_dot": 2.02e-06,
        "meta_mean_motion_ddot": 0,
        "tle_line1": "1 58584U 23198A   25349.32076711  .00000202  00000+0  00000+0 0  9995",
        "tle_line2": "2 58584  63.2249 174.6089 6865091 268.0960  18.8351  2.00603484 14636"
      },
      "geometry": {
        "type": "Point",
        "coordinates": [
          -149.78614952426668,
          49.176439676463914
        ]
      }
    },
    {
      "type": "Feature",
      "properties": {
        "norad_id": 58645,
        "name": "TIANMU-1 11",
        "group": "weather",
        "lat": 68.17989424110743,
        "lon": -150.7110826266168,
        "alt_km": 490.50293362302546,
        "timestamp": "2025-12-16T21:38:56.812294+00:00",
        "meta_object_name": "TIANMU-1 11",
        "meta_object_id": "2023-205A",
        "meta_epoch": "2025-12-16T05:24:50.870592",
        "meta_mean_motion": 15.2464379,
        "meta_eccentricity": 0.00076837,
        "meta_inclination": 97.3606,
        "meta_ra_of_asc_node": 9.7879,
        "meta_arg_of_pericenter": 295.87,
        "meta_mean_anomaly": 64.1745,
        "meta_ephemeris_type": 0,
        "meta_classification_type": "U",
        "meta_norad_cat_id": 58645,
        "meta_element_set_no": 999,
        "meta_rev_at_epoch": 10962,
        "meta_bstar": 0.00019453235,
        "meta_mean_motion_dot": 4.735e-05,
        "meta_mean_motion_ddot": 0,
        "tle_line1": "1 58645U 23205A   25350.22558878  .00004735  00000+0  19453-3 0  9993",
        "tle_line2": "2 58645  97.3606   9.7879 0007683 295.8700  64.1745 15.24643790109622"
      },
      "geometry": {
        "type": "Point",
        "coordinates": [
          -150.7110826266168,
          68.17989424110743
        ]
      }
    },
    {
      "type": "Feature",
      "properties": {
        "norad_id": 58646,
        "name": "TIANMU-1 12",
        "group": "weather",
        "lat": -38.651465698941415,
        "lon": 16.189632827359837,
        "alt_km": 496.0400785811544,
        "timestamp": "2025-12-16T21:38:56.812307+00:00",
        "meta_object_name": "TIANMU-1 12",
        "meta_object_id": "2023-205B",
        "meta_epoch": "2025-12-16T06:04:02.186976",
        "meta_mean_motion": 15.24527981,
        "meta_eccentricity": 0.00057984,
        "meta_inclination": 97.3592,
        "meta_ra_of_asc_node": 9.619,
        "meta_arg_of_pericenter": 275.3539,
        "meta_mean_anomaly": 84.7037,
        "meta_ephemeris_type": 0,
        "meta_classification_type": "U",
        "meta_norad_cat_id": 58646,
        "meta_element_set_no": 999,
        "meta_rev_at_epoch": 10961,
        "meta_bstar": 0.00020181007,
        "meta_mean_motion_dot": 4.896e-05,
        "meta_mean_motion_ddot": 0,
        "tle_line1": "1 58646U 23205B   25350.25280309  .00004896  00000+0  20181-3 0  9996",
        "tle_line2": "2 58646  97.3592   9.6190 0005798 275.3539  84.7037 15.24527981109614"
      },
      "geometry": {
        "type": "Point",
        "coordinates": [
          16.189632827359837,
          -38.651465698941415
        ]
      }
    }
  ]
}